CCSDS_OMM_VERS = 2.0
CREATION_DATE  = 
ORIGINATOR     = 

OBJECT_NAME    = STARLINK-35955
OBJECT_ID      = 2025-271U
CENTER_NAME    = EARTH
REF_FRAME      = TEME
TIME_SYSTEM    = UTC
MEAN_ELEMENT_THEORY = SGP/SGP4

EPOCH          = 2025-12-10T04:00:01.998720
MEAN_MOTION    = 15.61173722
ECCENTRICITY   = .0001097
INCLINATION    = 53.1597
RA_OF_ASC_NODE = 199.5763
ARG_OF_PERICENTER = 77.4188
MEAN_ANOMALY   = 28.9587

EPHEMERIS_TYPE = 0
CLASSIFICATION_TYPE = U
NORAD_CAT_ID   = 66635
ELEMENT_SET_NO = 999
REV_AT_EPOCH   = 383
BSTAR          = -.26604E-1
MEAN_MOTION_DOT = -.2010933E-1
MEAN_MOTION_DDOT = 0

CCSDS_OMM_VERS = 2.0
CREATION_DATE  = 
ORIGINATOR     = 

OBJECT_NAME    = STARLINK-35968
OBJECT_ID      = 2025-271V
CENTER_NAME    = EARTH
REF_FRAME      = TEME
TIME_SYSTEM    = UTC
MEAN_ELEMENT_THEORY = SGP/SGP4

EPOCH          = 2025-12-10T04:00:01.998720
MEAN_MOTION    = 15.61168044
ECCENTRICITY   = .0001081
INCLINATION    = 53.1596
RA_OF_ASC_NODE = 199.5721
ARG_OF_PERICENTER = 81.7028
MEAN_ANOMALY   = 26.5936

EPHEMERIS_TYPE = 0
CLASSIFICATION_TYPE = U
NORAD_CAT_ID   = 66636
ELEMENT_SET_NO = 999
REV_AT_EPOCH   = 383
BSTAR          = -.26505E-1
MEAN_MOTION_DOT = -.2003961E-1
MEAN_MOTION_DDOT = 0

CCSDS_OMM_VERS = 2.0
CREATION_DATE  = 
ORIGINATOR     = 

OBJECT_NAME    = STARLINK-35953
OBJECT_ID      = 2025-271W
CENTER_NAME    = EARTH
REF_FRAME      = TEME
TIME_SYSTEM    = UTC
MEAN_ELEMENT_THEORY = SGP/SGP4

EPOCH          = 2025-12-10T04:00:01.998720
MEAN_MOTION    = 15.61177040
ECCENTRICITY   = .0001079
INCLINATION    = 53.1598
RA_OF_ASC_NODE = 199.5681
ARG_OF_PERICENTER = 70.2584
MEAN_ANOMALY   = 39.9532

EPHEMERIS_TYPE = 0
CLASSIFICATION_TYPE = U
NORAD_CAT_ID   = 66637
ELEMENT_SET_NO = 999
REV_AT_EPOCH   = 383
BSTAR          = -.26684E-1
MEAN_MOTION_DOT = -.2016436E-1
MEAN_MOTION_DDOT = 0

CCSDS_OMM_VERS = 2.0
CREATION_DATE  = 
ORIGINATOR     = 

OBJECT_NAME    = STARLINK-35972
OBJECT_ID      = 2025-271X
CENTER_NAME    = EARTH
REF_FRAME      = TEME
TIME_SYSTEM    = UTC
MEAN_ELEMENT_THEORY = SGP/SGP4

EPOCH          = 2025-12-10T04:00:01.998720
MEAN_MOTION    = 15.61165451
ECCENTRICITY   = .0001064
INCLINATION    = 53.1598
RA_OF_ASC_NODE = 199.5645
ARG_OF_PERICENTER = 71.5514
MEAN_ANOMALY   = 40.5814

EPHEMERIS_TYPE = 0
CLASSIFICATION_TYPE = U
NORAD_CAT_ID   = 66638
ELEMENT_SET_NO = 999
REV_AT_EPOCH   = 383
BSTAR          = -.26473E-1
MEAN_MOTION_DOT = -.2001617E-1
MEAN_MOTION_DDOT = 0

CCSDS_OMM_VERS = 2.0
CREATION_DATE  = 
ORIGINATOR     = 

OBJECT_NAME    = STARLINK-35908
OBJECT_ID      = 2025-271Y
CENTER_NAME    = EARTH
REF_FRAME      = TEME
TIME_SYSTEM    = UTC
MEAN_ELEMENT_THEORY = SGP/SGP4

EPOCH          = 2025-12-10T04:00:01.998720
MEAN_MOTION    = 15.61167472
ECCENTRICITY   = .0001085
INCLINATION    = 53.1599
RA_OF_ASC_NODE = 199.5601
ARG_OF_PERICENTER = 70.1987
MEAN_ANOMALY   = 43.8498

EPHEMERIS_TYPE = 0
CLASSIFICATION_TYPE = U
NORAD_CAT_ID   = 66639
ELEMENT_SET_NO = 999
REV_AT_EPOCH   = 383
BSTAR          = -.26507E-1
MEAN_MOTION_DOT = -.2004077E-1
MEAN_MOTION_DDOT = 0

CCSDS_OMM_VERS = 2.0
CREATION_DATE  = 
ORIGINATOR     = 

OBJECT_NAME    = STARLINK-35921
OBJECT_ID      = 2025-271Z
CENTER_NAME    = EARTH
REF_FRAME      = TEME
TIME_SYSTEM    = UTC
MEAN_ELEMENT_THEORY = SGP/SGP4

EPOCH          = 2025-12-10T04:00:01.998720
MEAN_MOTION    = 15.61167128
ECCENTRICITY   = .000107
INCLINATION    = 53.1595
RA_OF_ASC_NODE = 199.5565
ARG_OF_PERICENTER = 80.6483
MEAN_ANOMALY   = 35.3167

EPHEMERIS_TYPE = 0
CLASSIFICATION_TYPE = U
NORAD_CAT_ID   = 66640
ELEMENT_SET_NO = 999
REV_AT_EPOCH   = 383
BSTAR          = -.26517E-1
MEAN_MOTION_DOT = -.2004665E-1
MEAN_MOTION_DDOT = 0

CCSDS_OMM_VERS = 2.0
CREATION_DATE  = 
ORIGINATOR     = 

OBJECT_NAME    = STARLINK-35923
OBJECT_ID      = 2025-271AA
CENTER_NAME    = EARTH
REF_FRAME      = TEME
TIME_SYSTEM    = UTC
MEAN_ELEMENT_THEORY = SGP/SGP4

EPOCH          = 2025-12-10T04:00:01.998720
MEAN_MOTION    = 15.61169319
ECCENTRICITY   = .0001123
INCLINATION    = 53.1596
RA_OF_ASC_NODE = 199.5396
ARG_OF_PERICENTER = 78.9259
MEAN_ANOMALY   = 44.7058

EPHEMERIS_TYPE = 0
CLASSIFICATION_TYPE = U
NORAD_CAT_ID   = 66641
ELEMENT_SET_NO = 999
REV_AT_EPOCH   = 383
BSTAR          = -.26556E-1
MEAN_MOTION_DOT = -.2007475E-1
MEAN_MOTION_DDOT = 0

CCSDS_OMM_VERS = 2.0
CREATION_DATE  = 
ORIGINATOR     = 

OBJECT_NAME    = STARLINK-35926
OBJECT_ID      = 2025-271AB
CENTER_NAME    = EARTH
REF_FRAME      = TEME
TIME_SYSTEM    = UTC
MEAN_ELEMENT_THEORY = SGP/SGP4

EPOCH          = 2025-12-10T04:00:01.998720
MEAN_MOTION    = 15.61166840
ECCENTRICITY   = .0001056
INCLINATION    = 53.1595
RA_OF_ASC_NODE = 199.5443
ARG_OF_PERICENTER = 69.6328
MEAN_ANOMALY   = 52.0831

EPHEMERIS_TYPE = 0
CLASSIFICATION_TYPE = U
NORAD_CAT_ID   = 66642
ELEMENT_SET_NO = 999
REV_AT_EPOCH   = 359
BSTAR          = -.265E-1
MEAN_MOTION_DOT = -.2003534E-1
MEAN_MOTION_DDOT = 0

CCSDS_OMM_VERS = 2.0
CREATION_DATE  = 
ORIGINATOR     = 

OBJECT_NAME    = STARLINK-35918
OBJECT_ID      = 2025-271AC
CENTER_NAME    = EARTH
REF_FRAME      = TEME
TIME_SYSTEM    = UTC
MEAN_ELEMENT_THEORY = SGP/SGP4

EPOCH          = 2025-12-10T04:00:01.998720
MEAN_MOTION    = 15.61167463
ECCENTRICITY   = .0001078
INCLINATION    = 53.1596
RA_OF_ASC_NODE = 199.5527
ARG_OF_PERICENTER = 81.5624
MEAN_ANOMALY   = 36.3192

EPHEMERIS_TYPE = 0
CLASSIFICATION_TYPE = U
NORAD_CAT_ID   = 66643
ELEMENT_SET_NO = 999
REV_AT_EPOCH   = 383
BSTAR          = -.26521E-1
MEAN_MOTION_DOT = -.2005002E-1
MEAN_MOTION_DDOT = 0

CCSDS_OMM_VERS = 2.0
CREATION_DATE  = 
ORIGINATOR     = 

OBJECT_NAME    = STARLINK-35938
OBJECT_ID      = 2025-271AD
CENTER_NAME    = EARTH
REF_FRAME      = TEME
TIME_SYSTEM    = UTC
MEAN_ELEMENT_THEORY = SGP/SGP4

EPOCH          = 2025-12-10T04:00:01.998720
MEAN_MOTION    = 15.61167156
ECCENTRICITY   = .0001091
INCLINATION    = 53.1596
RA_OF_ASC_NODE = 199.5485
ARG_OF_PERICENTER = 83.9716
MEAN_ANOMALY   = 35.8265

EPHEMERIS_TYPE = 0
CLASSIFICATION_TYPE = U
NORAD_CAT_ID   = 66644
ELEMENT_SET_NO = 999
REV_AT_EPOCH   = 383
BSTAR          = -.26496E-1
MEAN_MOTION_DOT = -.2003284E-1
MEAN_MOTION_DDOT = 0

CCSDS_OMM_VERS = 2.0
CREATION_DATE  = 
ORIGINATOR     = 

OBJECT_NAME    = SHENZHOU-22
OBJECT_ID      = 2025-272A
CENTER_NAME    = EARTH
REF_FRAME      = TEME
TIME_SYSTEM    = UTC
MEAN_ELEMENT_THEORY = SGP/SGP4

EPOCH          = 2025-12-09T13:49:14.456064
MEAN_MOTION    = 15.58965688
ECCENTRICITY   = .00089597
INCLINATION    = 41.4682
RA_OF_ASC_NODE = 35.9133
ARG_OF_PERICENTER = 5.1145
MEAN_ANOMALY   = 354.9784

EPHEMERIS_TYPE = 0
CLASSIFICATION_TYPE = U
NORAD_CAT_ID   = 66645
ELEMENT_SET_NO = 999
REV_AT_EPOCH   = 26300
BSTAR          = .41052725E-3
MEAN_MOTION_DOT = .32682E-3
MEAN_MOTION_DDOT = 0

CCSDS_OMM_VERS = 2.0
CREATION_DATE  = 
ORIGINATOR     = 

OBJECT_NAME    = COSMOS 2597 (RODNIK-S 22)
OBJECT_ID      = 2025-273A
CENTER_NAME    = EARTH
REF_FRAME      = TEME
TIME_SYSTEM    = UTC
MEAN_ELEMENT_THEORY = SGP/SGP4

EPOCH          = 2025-12-10T05:14:02.266656
MEAN_MOTION    = 12.41951285
ECCENTRICITY   = .0007944
INCLINATION    = 82.4985
RA_OF_ASC_NODE = 288.0149
ARG_OF_PERICENTER = 295.1626
MEAN_ANOMALY   = 64.8629

EPHEMERIS_TYPE = 0
CLASSIFICATION_TYPE = U
NORAD_CAT_ID   = 66647
ELEMENT_SET_NO = 999
REV_AT_EPOCH   = 182
BSTAR          = .28185E-3
MEAN_MOTION_DOT = .48E-6
MEAN_MOTION_DDOT = 0

