STARLINK-35955          
1 66635U 25271U   25344.16668980 -.02010933  00000+0 -26604-1 0  9993
2 66635  53.1597 199.5763 0001097  77.4188  28.9587 15.61173722  3838
STARLINK-35968          
1 66636U 25271V   25344.16668980 -.02003961  00000+0 -26505-1 0  9997
2 66636  53.1596 199.5721 0001081  81.7028  26.5936 15.61168044  3839
STARLINK-35953          
1 66637U 25271W   25344.16668980 -.02016436  00000+0 -26684-1 0  9997
2 66637  53.1598 199.5681 0001079  70.2584  39.9532 15.61177040  3830
STARLINK-35972          
1 66638U 25271X   25344.16668980 -.02001617  00000+0 -26473-1 0  9999
2 66638  53.1598 199.5645 0001064  71.5514  40.5814 15.61165451  3836
STARLINK-35908          
1 66639U 25271Y   25344.16668980 -.02004077  00000+0 -26507-1 0  9991
2 66639  53.1599 199.5601 0001085  70.1987  43.8498 15.61167472  3831
STARLINK-35921          
1 66640U 25271Z   25344.16668980 -.02004665  00000+0 -26517-1 0  9997
2 66640  53.1595 199.5565 0001070  80.6483  35.3167 15.61167128  3836
STARLINK-35923          
1 66641U 25271AA  25344.16668980 -.02007475  00000+0 -26556-1 0  9993
2 66641  53.1596 199.5396 0001123  78.9259  44.7058 15.61169319  3837
STARLINK-35926          
1 66642U 25271AB  25344.16668980 -.02003534  00000+0 -26500-1 0  9995
2 66642  53.1595 199.5443 0001056  69.6328  52.0831 15.61166840  3599
STARLINK-35918          
1 66643U 25271AC  25344.16668980 -.02005002  00000+0 -26521-1 0  9991
2 66643  53.1596 199.5527 0001078  81.5624  36.3192 15.61167463  3834
STARLINK-35938          
1 66644U 25271AD  25344.16668980 -.02003284  00000+0 -26496-1 0  9993
2 66644  53.1596 199.5485 0001091  83.9716  35.8265 15.61167156  3835
SHENZHOU-22             
1 66645U 25272A   25343.57586176  .00032682  00000+0  41053-3 0  9993
2 66645  41.4682  35.9133 0008959   5.1145 354.9784 15.58965688263007
COSMOS 2597 (RODNIK-S *)
1 66647U 25273A   25344.21808179  .00000048  00000+0  28185-3 0  9990
2 66647  82.4985 288.0149 0007944 295.1626  64.8629 12.41951285  1828
